API VERSION: 1.2
API SOURCE: NASA/JPL Horizons API



*******************************************************************************
Ephemeris / API_USER Tue Apr  7 13:17:24 2026 Pasadena, USA      / Horizons    
*******************************************************************************
Target body name: Venus (299)                     {source: DE441}
Center body name: Earth (399)                     {source: DE441}
Center-site name: (user defined site below)
*******************************************************************************
Start time      : A.D. 2026-Jan-01 00:00:00.0000 UT      
Stop  time      : A.D. 2026-Dec-31 00:00:00.0000 UT      
Step-size       : 1440 minutes
*******************************************************************************
Target pole/equ : IAU_VENUS                       {East-longitude positive}
Target radii    : 6051.8, 6051.8, 6051.8 km       {Equator_a, b, pole_c}       
Center geodetic : 286.0, 40.7, 0.0                {E-lon(deg),Lat(deg),Alt(km)}
Center cylindric: 286.0, 4842.3819, 4137.22272    {E-lon(deg),Dxy(km),Dz(km)}
Center pole/equ : ITRF93                          {East-longitude positive}
Center radii    : 6378.137, 6378.137, 6356.752 km {Equator_a, b, pole_c}       
Target primary  : Sun
Vis. interferer : MOON (R_eq= 1737.400) km        {source: DE441}
Rel. light bend : Sun                             {source: DE441}
Rel. lght bnd GM: 1.3271E+11 km^3/s^2                                          
Atmos refraction: NO (AIRLESS)
RA format       : HMS
Time format     : CAL 
Calendar mode   : Mixed Julian/Gregorian
EOP file        : eop.260406.p260703                                           
EOP coverage    : DATA-BASED 1962-JAN-20 TO 2026-APR-06. PREDICTS-> 2026-JUL-02
Units conversion: 1 au= 149597870.700 km, c= 299792.458 km/s, 1 day= 86400.0 s 
Table cut-offs 1: Elevation (-90.0deg=NO ),Airmass (>38.000=NO), Daylight (NO )
Table cut-offs 2: Solar elongation (  0.0,180.0=NO ),Local Hour Angle( 0.0=NO )
Table cut-offs 3: RA/DEC angular rate (     0.0=NO )                           
*******************************************************************************
 Date__(UT)__HR:MN     R.A._____(ICRF)_____DEC
**********************************************
$$SOE
 2026-Nov-25 00:00  m  13 32 30.34 -09 04 42.9
 2026-Nov-26 00:00  m  13 34 17.47 -09 04 25.8
 2026-Nov-27 00:00  m  13 36 10.79 -09 05 05.4
 2026-Nov-28 00:00     13 38 10.07 -09 06 39.8
 2026-Nov-29 00:00     13 40 15.12 -09 09 06.9
 2026-Nov-30 00:00     13 42 25.73 -09 12 24.8
 2026-Dec-01 00:00     13 44 41.70 -09 16 31.2
 2026-Dec-02 00:00     13 47 02.83 -09 21 24.1
 2026-Dec-03 00:00     13 49 28.94 -09 27 01.5
 2026-Dec-04 00:00     13 51 59.83 -09 33 21.2
 2026-Dec-05 00:00     13 54 35.35 -09 40 21.3
 2026-Dec-06 00:00     13 57 15.32 -09 47 59.7
 2026-Dec-07 00:00     13 59 59.59 -09 56 14.5
 2026-Dec-08 00:00     14 02 48.00 -10 05 03.7
 2026-Dec-09 00:00     14 05 40.42 -10 14 25.4
 2026-Dec-10 00:00     14 08 36.70 -10 24 17.9
 2026-Dec-11 00:00     14 11 36.72 -10 34 39.3
 2026-Dec-12 00:00     14 14 40.37 -10 45 27.8
 2026-Dec-13 00:00  m  14 17 47.53 -10 56 41.7
 2026-Dec-14 00:00  m  14 20 58.10 -11 08 19.3
 2026-Dec-15 00:00  m  14 24 11.97 -11 20 19.1
 2026-Dec-16 00:00  m  14 27 29.06 -11 32 39.3
 2026-Dec-17 00:00  m  14 30 49.28 -11 45 18.4
 2026-Dec-18 00:00  m  14 34 12.55 -11 58 14.9
 2026-Dec-19 00:00  m  14 37 38.80 -12 11 27.2
 2026-Dec-20 00:00  m  14 41 07.95 -12 24 53.9
 2026-Dec-21 00:00  m  14 44 39.94 -12 38 33.6
 2026-Dec-22 00:00  m  14 48 14.72 -12 52 24.7
 2026-Dec-23 00:00  m  14 51 52.22 -13 06 26.0
 2026-Dec-24 00:00  m  14 55 32.40 -13 20 36.1
 2026-Dec-25 00:00  m  14 59 15.21 -13 34 53.4
 2026-Dec-26 00:00  m  15 03 00.60 -13 49 16.8
 2026-Dec-27 00:00     15 06 48.51 -14 03 44.8
 2026-Dec-28 00:00     15 10 38.91 -14 18 16.1
 2026-Dec-29 00:00     15 14 31.73 -14 32 49.3
 2026-Dec-30 00:00     15 18 26.93 -14 47 23.1
 2026-Dec-31 00:00     15 22 24.47 -15 01 56.3
